{
    "links": {
        "self": "http://www.neowsapp.com/rest/v1/neo/3726663?api_key=iIulBulltgU6a56xZRHN4H3l9WmuAYTsLGpBGhQ2"
    },
    "id": "3726663",
    "neo_reference_id": "3726663",
    "name": "(2015 QD9)",
    "designation": "2015 QD9",
    "nasa_jpl_url": "http://ssd.jpl.nasa.gov/sbdb.cgi?sstr=3726663",
    "absolute_magnitude_h": 22.5,
    "estimated_diameter": {
        "kilometers": {
            "estimated_diameter_min": 0.0840533402,
            "estimated_diameter_max": 0.1879489824
        },
        "meters": {
            "estimated_diameter_min": 84.0533402073,
            "estimated_diameter_max": 187.9489824394
        },
        "miles": {
            "estimated_diameter_min": 0.0522283081,
            "estimated_diameter_max": 0.1167860472
        },
        "feet": {
            "estimated_diameter_min": 275.7655606856,
            "estimated_diameter_max": 616.6305395464
        }
    },
    "is_potentially_hazardous_asteroid": false,
    "close_approach_data": [
        {
            "close_approach_date": "2002-08-18",
            "close_approach_date_full": "2002-Aug-18 23:35",
            "epoch_date_close_approach": 1029713700000,
            "relative_velocity": {
                "kilometers_per_second": "15.5148852564",
                "kilometers_per_hour": "55853.5869230008",
                "miles_per_hour": "34705.2468300168"
            },
            "miss_distance": {
                "astronomical": "0.1292988512",
                "lunar": "50.2972531168",
                "kilometers": "19342832.732966944",
                "miles": "12019078.9281700672"
            },
            "orbiting_body": "Earth"
        },
        {
            "close_approach_date": "2015-08-18",
            "close_approach_date_full": "2015-Aug-18 15:38",
            "epoch_date_close_approach": 1439912280000,
            "relative_velocity": {
                "kilometers_per_second": "15.7276225881",
                "kilometers_per_hour": "56619.4413170405",
                "miles_per_hour": "35181.1189672466"
            },
            "miss_distance": {
                "astronomical": "0.1333817051",
                "lunar": "51.8854832839",
                "kilometers": "19953618.979928137",
                "miles": "12398603.9032248106"
            },
            "orbiting_body": "Earth"
        },
        {
            "close_approach_date": "2028-08-17",
            "close_approach_date_full": "2028-Aug-17 01:45",
            "epoch_date_close_approach": 1850089500000,
            "relative_velocity": {
                "kilometers_per_second": "16.050385403",
                "kilometers_per_hour": "57781.3874509206",
                "miles_per_hour": "35903.1071080456"
            },
            "miss_distance": {
                "astronomical": "0.145193643",
                "lunar": "56.480327127",
                "kilometers": "21720659.73034041",
                "miles": "13496592.111141258"
            },
            "orbiting_body": "Earth"
        }
    ],
    "orbital_data": {
        "orbit_id": "11",
        "orbit_determination_date": "2017-04-06 08:32:15",
        "first_observation_date": "2015-08-22",
        "last_observation_date": "2015-10-01",
        "data_arc_in_days": 40,
        "observations_used": 36,
        "orbit_uncertainty": "7",
        "minimum_orbit_intersection": ".128267",
        "jupiter_tisserand_invariant": "4.050",
        "epoch_osculation": "2459000.5",
        "eccentricity": ".355642115676703",
        "semi_major_axis": "1.673979284684586",
        "inclination": "27.34997491794132",
        "ascending_node_longitude": "321.9547334845882",
        "orbital_period": "791.0857214769587",
        "perihelion_distance": "1.078641750280386",
        "perihelion_argument": "40.00049947086903",
        "aphelion_distance": "2.269316819088786",
        "perihelion_time": "2458869.509269280517",
        "mean_anomaly": "59.61005461073467",
        "mean_motion": ".4550707846526155",
        "equinox": "J2000",
        "orbit_class": {
            "orbit_class_type": "AMO",
            "orbit_class_description": "Near-Earth asteroid orbits similar to that of 1221 Amor",
            "orbit_class_range": "1.017 AU < q (perihelion) < 1.3 AU"
        }
    },
    "is_sentry_object": false
}